NORAD_CAT_ID,OBJECT_NAME,OBJECT_TYPE,EPOCH,MEAN_MOTION,ECCENTRICITY,INCLINATION,RA_OF_ASC_NODE,ARG_OF_PERICENTER,MEAN_ANOMALY,BSTAR,MEAN_MOTION_DOT,MEAN_MOTION_DDOT,TLE_LINE0,TLE_LINE1,TLE_LINE2,SEMIMAJOR_AXIS,PERIOD,APOGEE,PERIGEE,DECAYED
54806.0,STARLINK-5412,PAYLOAD,2024-07-30 12:38:31,15.08849544,0.000163,53.2182,144.591,76.9633,283.1541,0.00023854,3.511e-05,0.0,0 STARLINK-5412,1 54806U 22175BA  24212.52675750  .00003511  00000-0  23854-3 0  9993,2 54806  53.2182 144.5910 0001630  76.9633 283.1541 15.08849544 89339,6917.851,95.437,540.844,538.589,0.0
54806.0,STARLINK-5412,PAYLOAD,2024-07-30 19:00:04,15.08849106,0.0001598,53.2168,143.4066,95.8748,264.2426,0.00018865,2.716e-05,0.0,0 STARLINK-5412,1 54806U 22175BA  24212.79171904  .00002716  00000-0  18865-3 0  9996,2 54806  53.2168 143.4066 0001598  95.8748 264.2426 15.08849106 91534,6917.853,95.437,540.823,538.612,0.0
54806.0,STARLINK-5412,PAYLOAD,2024-07-31 02:57:00,15.08846478,0.0001489,53.2171,141.9164,87.891,272.2252,0.00015067,2.111e-05,0.0,0 STARLINK-5412,1 54806U 22175BA  24213.12291966  .00002111  00000-0  15067-3 0  9995,2 54806  53.2171 141.9164 0001489  87.8910 272.2252 15.08846478 89421,6917.861,95.437,540.756,538.696,0.0
54806.0,STARLINK-5412,PAYLOAD,2024-07-31 12:29:18,15.08857826,0.000149,53.2176,140.133,87.786,272.3303,0.00016842,2.395e-05,0.0,0 STARLINK-5412,1 54806U 22175BA  24213.52034942  .00002395  00000-0  16842-3 0  9994,2 54806  53.2176 140.1330 0001490  87.7860 272.3303 15.08857826 89480,6917.826,95.436,540.722,538.66,0.0
54806.0,STARLINK-5412,PAYLOAD,2024-07-31 18:50:53,15.08820293,0.0001587,53.2183,138.9418,90.7291,269.3883,-9.418e-06,-4.38e-06,0.0,0 STARLINK-5412,1 54806U 22175BA  24213.78533924 -.00000438  00000-0 -94180-5 0  9997,2 54806  53.2183 138.9418 0001587  90.7291 269.3883 15.08820293 91681,6917.941,95.439,540.904,538.708,0.0
54806.0,STARLINK-5412,PAYLOAD,2024-08-01 02:47:47,15.08835783,0.0001409,53.2149,137.4548,102.6846,257.4304,-3.0848e-05,-7.79e-06,0.0,0 STARLINK-5412,1 54806U 22175BA  24214.11652362 -.00000779  00000-0 -30848-4 0  9991,2 54806  53.2149 137.4548 0001409 102.6846 257.4304 15.08835783 89574,6917.893,95.438,540.733,538.784,0.0
54806.0,STARLINK-5412,PAYLOAD,2024-08-01 12:20:05,15.08851457,0.000144,53.2158,135.6695,102.4273,257.688,0.0002624,3.892e-05,0.0,0 STARLINK-5412,1 54806U 22175BA  24214.51395746  .00003892  00000-0  26240-3 0  9992,2 54806  53.2158 135.6695 0001440 102.4273 257.6880 15.08851457 89638,6917.845,95.437,540.707,538.714,0.0
54806.0,STARLINK-5412,PAYLOAD,2024-08-02 01:03:11,15.08841874,0.0001559,53.2171,133.2944,99.6023,260.5145,0.00022128,3.236e-05,0.0,0 STARLINK-5412,1 54806U 22175BA  24215.04388364  .00003236  00000-0  22128-3 0  9992,2 54806  53.2171 133.2944 0001559  99.6023 260.5145 15.08841874 89713,6917.875,95.437,540.818,538.661,0.0
54806.0,STARLINK-5412,PAYLOAD,2024-08-02 21:43:12,15.08838749,0.0001446,53.2143,129.426,99.8223,260.2933,0.00022886,3.356e-05,0.0,0 STARLINK-5412,1 54806U 22175BA  24215.90500712  .00003356  00000-0  22886-3 0  9994,2 54806  53.2143 129.4260 0001446  99.8223 260.2933 15.08838749 92004,6917.884,95.438,540.75,538.749,0.0
54806.0,STARLINK-5412,PAYLOAD,2024-08-03 00:53:59,15.08837125,0.0001279,53.2147,128.8322,83.0339,277.0798,0.00022273,3.258e-05,0.0,0 STARLINK-5412,1 54806U 22175BA  24216.03749006  .00003258  00000-0  22273-3 0  9991,2 54806  53.2147 128.8322 0001279  83.0339 277.0798 15.08837125 89869,6917.889,95.438,540.639,538.869,0.0
54806.0,STARLINK-5412,PAYLOAD,2024-08-03 21:33:59,15.08837964,0.0001289,53.216,124.9657,82.1498,277.964,0.00016715,2.373e-05,0.0,0 STARLINK-5412,1 54806U 22175BA  24216.89861111  .00002373  00000-0  16715-3 0  9998,2 54806  53.2160 124.9657 0001289  82.1498 277.9640 15.08837964 92151,6917.887,95.438,540.643,538.86,0.0
54806.0,STARLINK-5412,PAYLOAD,2024-08-04 03:55:32,15.08842429,0.0001336,53.2163,123.7739,91.3545,268.76,0.00020229,2.933e-05,0.0,0 STARLINK-5412,1 54806U 22175BA  24217.16356849  .00002933  00000-0  20229-3 0  9993,2 54806  53.2163 123.7739 0001336  91.3545 268.7600 15.08842429 90031,6917.873,95.437,540.662,538.814,0.0
54806.0,STARLINK-5412,PAYLOAD,2024-08-04 10:17:04,15.08857792,0.0001078,53.2157,122.5891,102.6638,257.4475,0.00037187,5.638e-05,0.0,0 STARLINK-5412,1 54806U 22175BA  24217.42852128  .00005638  00000-0  37187-3 0  9999,2 54806  53.2157 122.5891 0001078 102.6638 257.4475 15.08857792 90070,6917.826,95.436,540.437,538.945,0.0
54806.0,STARLINK-5412,PAYLOAD,2024-08-04 21:24:46,15.08843863,0.0001796,53.2164,120.5081,92.4963,267.6235,0.00018605,2.674e-05,0.0,0 STARLINK-5412,1 54806U 22175BA  24217.89220821  .00002674  00000-0  18605-3 0  9990,2 54806  53.2164 120.5081 0001796  92.4963 267.6235 15.08843863 90140,6917.869,95.437,540.976,538.491,0.0
54806.0,STARLINK-5412,PAYLOAD,2024-08-04 23:00:09,15.08844006,0.0001703,53.2172,120.2126,91.2645,268.8542,0.00018689,2.688e-05,0.0,0 STARLINK-5412,1 54806U 22175BA  24217.95844813  .00002688  00000-0  18689-3 0  9997,2 54806  53.2172 120.2126 0001703  91.2645 268.8542 15.08844006 92313,6917.868,95.437,540.911,538.555,0.0
54806.0,STARLINK-5412,PAYLOAD,2024-08-05 21:15:35,15.08800548,0.0001507,53.2161,116.042,62.3075,297.807,-0.00071768,-0.00011679,0.0,0 STARLINK-5412,1 54806U 22175BA  24218.88582304 -.00011679  00000-0 -71768-3 0  9993,2 54806  53.2161 116.0420 0001507  62.3075 297.8070 15.08800548 90295,6918.001,95.44,540.909,538.823,0.0
54806.0,STARLINK-5412,PAYLOAD,2024-08-05 22:50:58,15.08802567,0.0001569,53.2162,115.7455,65.0829,295.0326,-0.00065062,-0.00010617,0.0,0 STARLINK-5412,1 54806U 22175BA  24218.95206314 -.00010617  00000-0 -65062-3 0  9996,2 54806  53.2162 115.7455 0001569  65.0829 295.0326 15.08802567 92463,6917.995,95.44,540.945,538.774,0.0
54806.0,STARLINK-5412,PAYLOAD,2024-08-06 21:06:22,15.08833728,0.0001577,53.2158,111.5872,79.1952,280.9217,0.00024582,3.626e-05,0.0,0 STARLINK-5412,1 54806U 22175BA  24219.87942514  .00003626  00000-0  24582-3 0  9999,2 54806  53.2158 111.5872 0001577  79.1952 280.9217 15.08833728 92608,6917.9,95.438,540.856,538.674,0.0
54806.0,STARLINK-5412,PAYLOAD,2024-08-07 01:52:31,15.08848646,0.0001476,53.2159,110.6912,84.0315,276.0846,0.00042396,6.467e-05,0.0,0 STARLINK-5412,1 54806U 22175BA  24220.07814053  .00006467  00000-0  42396-3 0  9998,2 54806  53.2159 110.6912 0001476  84.0315 276.0846 15.08848646 90472,6917.854,95.437,540.74,538.698,0.0
54806.0,STARLINK-5412,PAYLOAD,2024-08-07 20:57:09,15.08845683,0.0001709,53.2163,107.1209,64.8882,295.2287,0.00056147,8.66e-05,0.0,0 STARLINK-5412,1 54806U 22175BA  24220.87302459  .00008660  00000-0  56147-3 0  9994,2 54806  53.2163 107.1209 0001709  64.8882 295.2287 15.08845683 90594,6917.863,95.437,540.91,538.546,0.0
54806.0,STARLINK-5412,PAYLOAD,2024-08-08 22:23:19,15.08842689,0.0001253,53.2151,102.3727,90.2888,269.8247,0.0004886,7.497e-05,0.0,0 STARLINK-5412,1 54806U 22175BA  24221.93286214  .00007497  00000-0  48860-3 0  9992,2 54806  53.2151 102.3727 0001253  90.2888 269.8247 15.08842689 92910,6917.872,95.437,540.604,538.87,0.0
54806.0,STARLINK-5412,PAYLOAD,2024-08-09 01:34:04,15.0885596,0.0001151,53.2147,101.7709,98.9538,261.1584,6.6351e-05,7.69e-06,0.0,0 STARLINK-5412,1 54806U 22175BA  24222.06532979  .00000769  00000-0  66351-4 0  9990,2 54806  53.2147 101.7709 0001151  98.9538 261.1584 15.08855960 90779,6917.832,95.437,540.493,538.9,0.0
54806.0,STARLINK-5412,PAYLOAD,2024-08-09 09:30:58,15.08868771,9.67e-05,53.2169,100.2841,79.0592,281.0509,0.00015848,2.237e-05,0.0,0 STARLINK-5412,1 54806U 22175BA  24222.39651599  .00002237  00000-0  15848-3 0  9992,2 54806  53.2169 100.2841 0000967  79.0592 281.0509 15.08868771 90826,6917.792,95.436,540.326,538.988,0.0
54806.0,STARLINK-5412,PAYLOAD,2024-08-09 20:38:43,15.08836761,0.0001368,53.2173,98.2021,98.3384,261.7763,-3.2466e-05,-8.05e-06,0.0,0 STARLINK-5412,1 54806U 22175BA  24222.86022044 -.00000805  00000-0 -32466-4 0  9998,2 54806  53.2173  98.2021 0001368  98.3384 261.7763 15.08836761 90894,6917.89,95.438,540.702,538.809,0.0
54806.0,STARLINK-5412,PAYLOAD,2024-08-10 01:24:51,15.08849019,0.0001191,53.2165,97.3087,113.2575,246.8542,7.6805e-05,9.35e-06,0.0,0 STARLINK-5412,1 54806U 22175BA  24223.05892911  .00000935  00000-0  76805-4 0  9995,2 54806  53.2165  97.3087 0001191 113.2575 246.8542 15.08849019 90923,6917.853,95.437,540.542,538.894,0.0
54806.0,STARLINK-5412,PAYLOAD,2024-08-10 20:29:30,15.08797072,0.0001831,53.2171,93.7366,126.0299,234.0863,0.00063951,9.893e-05,0.0,0 STARLINK-5412,1 54806U 22175BA  24223.85382338  .00009893  00000-0  63951-3 0  9999,2 54806  53.2171  93.7366 0001831 126.0299 234.0863 15.08797072 91046,6918.012,95.44,541.143,538.61,0.0
54806.0,STARLINK-5412,PAYLOAD,2024-08-10 22:04:52,15.0883715,0.0001536,53.2172,93.4393,116.6754,243.4396,6.8827e-05,8.07e-06,0.0,0 STARLINK-5412,1 54806U 22175BA  24223.92005577  .00000807  00000-0  68827-4 0  9998,2 54806  53.2172  93.4393 0001536 116.6754 243.4396 15.08837150 93215,6917.889,95.438,540.817,538.692,0.0
54806.0,STARLINK-5412,PAYLOAD,2024-08-11 01:15:39,15.08823751,0.0001538,53.2167,92.846,114.0181,246.0972,0.00025149,3.715e-05,0.0,0 STARLINK-5412,1 54806U 22175BA  24224.05254060  .00003715  00000-0  25149-3 0  9996,2 54806  53.2167  92.8460 0001538 114.0181 246.0972 15.08823751 91078,6917.93,95.439,540.859,538.731,0.0
54806.0,STARLINK-5412,PAYLOAD,2024-08-11 21:55:39,15.08841015,0.0002005,53.2173,88.9833,89.3468,270.7754,0.00021894,3.198e-05,0.0,0 STARLINK-5412,1 54806U 22175BA  24224.91365364  .00003198  00000-0  21894-3 0  9999,2 54806  53.2173  88.9833 0002005  89.3468 270.7754 15.08841015 93366,6917.877,95.437,541.129,538.355,0.0
54806.0,STARLINK-5412,PAYLOAD,2024-08-11 23:31:02,15.0884374,0.0001204,53.2173,88.6871,96.2317,263.8812,0.00014461,2.015e-05,0.0,0 STARLINK-5412,1 54806U 22175BA  24224.97989432  .00002015  00000-0  14461-3 0  9992,2 54806  53.2173  88.6871 0001204  96.2317 263.8812 15.08843740 91212,6917.869,95.437,540.567,538.901,0.0
